[{"OBJECT_NAME":"STARLINK-31372","OBJECT_ID":"2024-027J","EPOCH":"2026-03-09T22:33:00.676224","MEAN_MOTION":15.30189208,"ECCENTRICITY":8.71e-5,"INCLINATION":53.1594,"RA_OF_ASC_NODE":308.6676,"ARG_OF_PERICENTER":81.1428,"MEAN_ANOMALY":278.9672,"EPHEMERIS_TYPE":0,"CLASSIFICATION_TYPE":"U","NORAD_CAT_ID":58939,"ELEMENT_SET_NO":999,"REV_AT_EPOCH":11736,"BSTAR":0.00013062538,"MEAN_MOTION_DOT":3.51e-5,"MEAN_MOTION_DDOT":0},{"OBJECT_NAME":"COSMOS 2251 DEB","OBJECT_ID":"1993-036BN","EPOCH":"2026-03-09T17:54:27.582912","MEAN_MOTION":15.31852549,"ECCENTRICITY":0.0043021,"INCLINATION":74.0291,"RA_OF_ASC_NODE":318.0178,"ARG_OF_PERICENTER":323.0874,"MEAN_ANOMALY":36.7369,"EPHEMERIS_TYPE":0,"CLASSIFICATION_TYPE":"U","NORAD_CAT_ID":33821,"ELEMENT_SET_NO":999,"REV_AT_EPOCH":76330,"BSTAR":0.0011195846,"MEAN_MOTION_DOT":0.00035571,"MEAN_MOTION_DDOT":0}]
